[{"OBJECT_NAME":"STARLINK-2464","OBJECT_ID":"2021-027AH","EPOCH":"2026-03-10T00:00:02.999808","MEAN_MOTION":15.09205668,"ECCENTRICITY":0.00019372,"INCLINATION":53.0617,"RA_OF_ASC_NODE":150.2193,"ARG_OF_PERICENTER":47.7543,"MEAN_ANOMALY":50.293,"EPHEMERIS_TYPE":0,"CLASSIFICATION_TYPE":"U","NORAD_CAT_ID":48123,"ELEMENT_SET_NO":999,"REV_AT_EPOCH":569,"BSTAR":0.0055776502,"MEAN_MOTION_DOT":0.00090534,"MEAN_MOTION_DDOT":0},{"OBJECT_NAME":"CZ-6A DEB","OBJECT_ID":"2022-151VX","EPOCH":"2026-03-09T17:15:51.308640","MEAN_MOTION":15.17668829,"ECCENTRICITY":0.00301527,"INCLINATION":98.6392,"RA_OF_ASC_NODE":152.1249,"ARG_OF_PERICENTER":179.6266,"MEAN_ANOMALY":180.4992,"EPHEMERIS_TYPE":0,"CLASSIFICATION_TYPE":"U","NORAD_CAT_ID":55206,"ELEMENT_SET_NO":999,"REV_AT_EPOCH":17057,"BSTAR":0.00785456,"MEAN_MOTION_DOT":0.00163373,"MEAN_MOTION_DDOT":0}]
